{
  "type": "FeatureCollection",
  "name": "20mesh",
  "crs": {
    "type": "name",
    "properties": {
      "name": "urn:ogc:def:crs:OGC:1.3:CRS84"
    }
  },
  "features": [
    {
      "type": "Feature",
      "properties": {
        "id": 1
      },
      "geometry": {
        "type": "LineString",
        "coordinates": [
          [
            136.7643842,
            36.5806468
          ],
          [
            136.7867328,
            36.5807202
          ]
        ]
      }
    },
    {
      "type": "Feature",
      "properties": {
        "id": 2
      },
      "geometry": {
        "type": "LineString",
        "coordinates": [
          [
            136.7643833,
            36.5808271
          ],
          [
            136.7867319,
            36.5809004
          ]
        ]
      }
    },
    {
      "type": "Feature",
      "properties": {
        "id": 3
      },
      "geometry": {
        "type": "LineString",
        "coordinates": [
          [
            136.7643824,
            36.5810073
          ],
          [
            136.786731,
            36.5810807
          ]
        ]
      }
    },
    {
      "type": "Feature",
      "properties": {
        "id": 4
      },
      "geometry": {
        "type": "LineString",
        "coordinates": [
          [
            136.7643814,
            36.5811876
          ],
          [
            136.7867302,
            36.5812609
          ]
        ]
      }
    },
    {
      "type": "Feature",
      "properties": {
        "id": 5
      },
      "geometry": {
        "type": "LineString",
        "coordinates": [
          [
            136.7643805,
            36.5813678
          ],
          [
            136.7867293,
            36.5814411
          ]
        ]
      }
    },
    {
      "type": "Feature",
      "properties": {
        "id": 6
      },
      "geometry": {
        "type": "LineString",
        "coordinates": [
          [
            136.7643796,
            36.5815481
          ],
          [
            136.7867284,
            36.5816214
          ]
        ]
      }
    },
    {
      "type": "Feature",
      "properties": {
        "id": 7
      },
      "geometry": {
        "type": "LineString",
        "coordinates": [
          [
            136.7643786,
            36.5817283
          ],
          [
            136.7867275,
            36.5818016
          ]
        ]
      }
    },
    {
      "type": "Feature",
      "properties": {
        "id": 8
      },
      "geometry": {
        "type": "LineString",
        "coordinates": [
          [
            136.7643777,
            36.5819085
          ],
          [
            136.7867266,
            36.5819819
          ]
        ]
      }
    },
    {
      "type": "Feature",
      "properties": {
        "id": 9
      },
      "geometry": {
        "type": "LineString",
        "coordinates": [
          [
            136.7643768,
            36.5820888
          ],
          [
            136.7867257,
            36.5821621
          ]
        ]
      }
    },
    {
      "type": "Feature",
      "properties": {
        "id": 10
      },
      "geometry": {
        "type": "LineString",
        "coordinates": [
          [
            136.7643758,
            36.582269
          ],
          [
            136.7867249,
            36.5823424
          ]
        ]
      }
    },
    {
      "type": "Feature",
      "properties": {
        "id": 11
      },
      "geometry": {
        "type": "LineString",
        "coordinates": [
          [
            136.7643749,
            36.5824493
          ],
          [
            136.786724,
            36.5825226
          ]
        ]
      }
    },
    {
      "type": "Feature",
      "properties": {
        "id": 12
      },
      "geometry": {
        "type": "LineString",
        "coordinates": [
          [
            136.764374,
            36.5826295
          ],
          [
            136.7867231,
            36.5827028
          ]
        ]
      }
    },
    {
      "type": "Feature",
      "properties": {
        "id": 13
      },
      "geometry": {
        "type": "LineString",
        "coordinates": [
          [
            136.764373,
            36.5828098
          ],
          [
            136.7867222,
            36.5828831
          ]
        ]
      }
    },
    {
      "type": "Feature",
      "properties": {
        "id": 14
      },
      "geometry": {
        "type": "LineString",
        "coordinates": [
          [
            136.7643721,
            36.58299
          ],
          [
            136.7867213,
            36.5830633
          ]
        ]
      }
    },
    {
      "type": "Feature",
      "properties": {
        "id": 15
      },
      "geometry": {
        "type": "LineString",
        "coordinates": [
          [
            136.7643712,
            36.5831702
          ],
          [
            136.7867204,
            36.5832436
          ]
        ]
      }
    },
    {
      "type": "Feature",
      "properties": {
        "id": 16
      },
      "geometry": {
        "type": "LineString",
        "coordinates": [
          [
            136.7643702,
            36.5833505
          ],
          [
            136.7867196,
            36.5834238
          ]
        ]
      }
    },
    {
      "type": "Feature",
      "properties": {
        "id": 17
      },
      "geometry": {
        "type": "LineString",
        "coordinates": [
          [
            136.7643693,
            36.5835307
          ],
          [
            136.7867187,
            36.5836041
          ]
        ]
      }
    },
    {
      "type": "Feature",
      "properties": {
        "id": 18
      },
      "geometry": {
        "type": "LineString",
        "coordinates": [
          [
            136.7643683,
            36.583711
          ],
          [
            136.7867178,
            36.5837843
          ]
        ]
      }
    },
    {
      "type": "Feature",
      "properties": {
        "id": 19
      },
      "geometry": {
        "type": "LineString",
        "coordinates": [
          [
            136.7643674,
            36.5838912
          ],
          [
            136.7867169,
            36.5839645
          ]
        ]
      }
    },
    {
      "type": "Feature",
      "properties": {
        "id": 20
      },
      "geometry": {
        "type": "LineString",
        "coordinates": [
          [
            136.7643665,
            36.5840715
          ],
          [
            136.786716,
            36.5841448
          ]
        ]
      }
    },
    {
      "type": "Feature",
      "properties": {
        "id": 21
      },
      "geometry": {
        "type": "LineString",
        "coordinates": [
          [
            136.7643655,
            36.5842517
          ],
          [
            136.7867151,
            36.584325
          ]
        ]
      }
    },
    {
      "type": "Feature",
      "properties": {
        "id": 22
      },
      "geometry": {
        "type": "LineString",
        "coordinates": [
          [
            136.7643646,
            36.5844319
          ],
          [
            136.7867143,
            36.5845053
          ]
        ]
      }
    },
    {
      "type": "Feature",
      "properties": {
        "id": 23
      },
      "geometry": {
        "type": "LineString",
        "coordinates": [
          [
            136.7643637,
            36.5846122
          ],
          [
            136.7867134,
            36.5846855
          ]
        ]
      }
    },
    {
      "type": "Feature",
      "properties": {
        "id": 24
      },
      "geometry": {
        "type": "LineString",
        "coordinates": [
          [
            136.7643627,
            36.5847924
          ],
          [
            136.7867125,
            36.5848658
          ]
        ]
      }
    },
    {
      "type": "Feature",
      "properties": {
        "id": 25
      },
      "geometry": {
        "type": "LineString",
        "coordinates": [
          [
            136.7643618,
            36.5849727
          ],
          [
            136.7867116,
            36.585046
          ]
        ]
      }
    },
    {
      "type": "Feature",
      "properties": {
        "id": 26
      },
      "geometry": {
        "type": "LineString",
        "coordinates": [
          [
            136.7643609,
            36.5851529
          ],
          [
            136.7867107,
            36.5852262
          ]
        ]
      }
    },
    {
      "type": "Feature",
      "properties": {
        "id": 27
      },
      "geometry": {
        "type": "LineString",
        "coordinates": [
          [
            136.7643599,
            36.5853332
          ],
          [
            136.7867098,
            36.5854065
          ]
        ]
      }
    },
    {
      "type": "Feature",
      "properties": {
        "id": 28
      },
      "geometry": {
        "type": "LineString",
        "coordinates": [
          [
            136.764359,
            36.5855134
          ],
          [
            136.786709,
            36.5855867
          ]
        ]
      }
    },
    {
      "type": "Feature",
      "properties": {
        "id": 29
      },
      "geometry": {
        "type": "LineString",
        "coordinates": [
          [
            136.7643581,
            36.5856936
          ],
          [
            136.7867081,
            36.585767
          ]
        ]
      }
    },
    {
      "type": "Feature",
      "properties": {
        "id": 30
      },
      "geometry": {
        "type": "LineString",
        "coordinates": [
          [
            136.7643571,
            36.5858739
          ],
          [
            136.7867072,
            36.5859472
          ]
        ]
      }
    },
    {
      "type": "Feature",
      "properties": {
        "id": 31
      },
      "geometry": {
        "type": "LineString",
        "coordinates": [
          [
            136.7643562,
            36.5860541
          ],
          [
            136.7867063,
            36.5861275
          ]
        ]
      }
    },
    {
      "type": "Feature",
      "properties": {
        "id": 32
      },
      "geometry": {
        "type": "LineString",
        "coordinates": [
          [
            136.7643553,
            36.5862344
          ],
          [
            136.7867054,
            36.5863077
          ]
        ]
      }
    },
    {
      "type": "Feature",
      "properties": {
        "id": 33
      },
      "geometry": {
        "type": "LineString",
        "coordinates": [
          [
            136.7643543,
            36.5864146
          ],
          [
            136.7867045,
            36.5864879
          ]
        ]
      }
    },
    {
      "type": "Feature",
      "properties": {
        "id": 34
      },
      "geometry": {
        "type": "LineString",
        "coordinates": [
          [
            136.7643534,
            36.5865949
          ],
          [
            136.7867037,
            36.5866682
          ]
        ]
      }
    },
    {
      "type": "Feature",
      "properties": {
        "id": 35
      },
      "geometry": {
        "type": "LineString",
        "coordinates": [
          [
            136.7643524,
            36.5867751
          ],
          [
            136.7867028,
            36.5868484
          ]
        ]
      }
    },
    {
      "type": "Feature",
      "properties": {
        "id": 36
      },
      "geometry": {
        "type": "LineString",
        "coordinates": [
          [
            136.7643515,
            36.5869553
          ],
          [
            136.7867019,
            36.5870287
          ]
        ]
      }
    },
    {
      "type": "Feature",
      "properties": {
        "id": 37
      },
      "geometry": {
        "type": "LineString",
        "coordinates": [
          [
            136.7643506,
            36.5871356
          ],
          [
            136.786701,
            36.5872089
          ]
        ]
      }
    },
    {
      "type": "Feature",
      "properties": {
        "id": 38
      },
      "geometry": {
        "type": "LineString",
        "coordinates": [
          [
            136.7643496,
            36.5873158
          ],
          [
            136.7867001,
            36.5873892
          ]
        ]
      }
    },
    {
      "type": "Feature",
      "properties": {
        "id": 39
      },
      "geometry": {
        "type": "LineString",
        "coordinates": [
          [
            136.7643487,
            36.5874961
          ],
          [
            136.7866992,
            36.5875694
          ]
        ]
      }
    },
    {
      "type": "Feature",
      "properties": {
        "id": 40
      },
      "geometry": {
        "type": "LineString",
        "coordinates": [
          [
            136.7643478,
            36.5876763
          ],
          [
            136.7866984,
            36.5877497
          ]
        ]
      }
    },
    {
      "type": "Feature",
      "properties": {
        "id": 41
      },
      "geometry": {
        "type": "LineString",
        "coordinates": [
          [
            136.7643468,
            36.5878565
          ],
          [
            136.7866975,
            36.5879299
          ]
        ]
      }
    },
    {
      "type": "Feature",
      "properties": {
        "id": 42
      },
      "geometry": {
        "type": "LineString",
        "coordinates": [
          [
            136.7643459,
            36.5880368
          ],
          [
            136.7866966,
            36.5881101
          ]
        ]
      }
    },
    {
      "type": "Feature",
      "properties": {
        "id": 43
      },
      "geometry": {
        "type": "LineString",
        "coordinates": [
          [
            136.764345,
            36.588217
          ],
          [
            136.7866957,
            36.5882904
          ]
        ]
      }
    },
    {
      "type": "Feature",
      "properties": {
        "id": 44
      },
      "geometry": {
        "type": "LineString",
        "coordinates": [
          [
            136.764344,
            36.5883973
          ],
          [
            136.7866948,
            36.5884706
          ]
        ]
      }
    },
    {
      "type": "Feature",
      "properties": {
        "id": 45
      },
      "geometry": {
        "type": "LineString",
        "coordinates": [
          [
            136.7643431,
            36.5885775
          ],
          [
            136.7866939,
            36.5886509
          ]
        ]
      }
    },
    {
      "type": "Feature",
      "properties": {
        "id": 46
      },
      "geometry": {
        "type": "LineString",
        "coordinates": [
          [
            136.7643422,
            36.5887578
          ],
          [
            136.7866931,
            36.5888311
          ]
        ]
      }
    },
    {
      "type": "Feature",
      "properties": {
        "id": 47
      },
      "geometry": {
        "type": "LineString",
        "coordinates": [
          [
            136.7643412,
            36.588938
          ],
          [
            136.7866922,
            36.5890114
          ]
        ]
      }
    },
    {
      "type": "Feature",
      "properties": {
        "id": 48
      },
      "geometry": {
        "type": "LineString",
        "coordinates": [
          [
            136.7643403,
            36.5891182
          ],
          [
            136.7866913,
            36.5891916
          ]
        ]
      }
    },
    {
      "type": "Feature",
      "properties": {
        "id": 49
      },
      "geometry": {
        "type": "LineString",
        "coordinates": [
          [
            136.7643394,
            36.5892985
          ],
          [
            136.7866904,
            36.5893718
          ]
        ]
      }
    },
    {
      "type": "Feature",
      "properties": {
        "id": 50
      },
      "geometry": {
        "type": "LineString",
        "coordinates": [
          [
            136.7643384,
            36.5894787
          ],
          [
            136.7866895,
            36.5895521
          ]
        ]
      }
    },
    {
      "type": "Feature",
      "properties": {
        "id": 51
      },
      "geometry": {
        "type": "LineString",
        "coordinates": [
          [
            136.7643375,
            36.589659
          ],
          [
            136.7866886,
            36.5897323
          ]
        ]
      }
    },
    {
      "type": "Feature",
      "properties": {
        "id": 52
      },
      "geometry": {
        "type": "LineString",
        "coordinates": [
          [
            136.7643365,
            36.5898392
          ],
          [
            136.7866878,
            36.5899126
          ]
        ]
      }
    },
    {
      "type": "Feature",
      "properties": {
        "id": 53
      },
      "geometry": {
        "type": "LineString",
        "coordinates": [
          [
            136.7643356,
            36.5900195
          ],
          [
            136.7866869,
            36.5900928
          ]
        ]
      }
    },
    {
      "type": "Feature",
      "properties": {
        "id": 54
      },
      "geometry": {
        "type": "LineString",
        "coordinates": [
          [
            136.7643347,
            36.5901997
          ],
          [
            136.786686,
            36.5902731
          ]
        ]
      }
    },
    {
      "type": "Feature",
      "properties": {
        "id": 55
      },
      "geometry": {
        "type": "LineString",
        "coordinates": [
          [
            136.7643337,
            36.5903799
          ],
          [
            136.7866851,
            36.5904533
          ]
        ]
      }
    },
    {
      "type": "Feature",
      "properties": {
        "id": 56
      },
      "geometry": {
        "type": "LineString",
        "coordinates": [
          [
            136.7643328,
            36.5905602
          ],
          [
            136.7866842,
            36.5906335
          ]
        ]
      }
    },
    {
      "type": "Feature",
      "properties": {
        "id": 57
      },
      "geometry": {
        "type": "LineString",
        "coordinates": [
          [
            136.7643319,
            36.5907404
          ],
          [
            136.7866833,
            36.5908138
          ]
        ]
      }
    },
    {
      "type": "Feature",
      "properties": {
        "id": 58
      },
      "geometry": {
        "type": "LineString",
        "coordinates": [
          [
            136.7643309,
            36.5909207
          ],
          [
            136.7866825,
            36.590994
          ]
        ]
      }
    },
    {
      "type": "Feature",
      "properties": {
        "id": 59
      },
      "geometry": {
        "type": "LineString",
        "coordinates": [
          [
            136.76433,
            36.5911009
          ],
          [
            136.7866816,
            36.5911743
          ]
        ]
      }
    },
    {
      "type": "Feature",
      "properties": {
        "id": 60
      },
      "geometry": {
        "type": "LineString",
        "coordinates": [
          [
            136.7643291,
            36.5912812
          ],
          [
            136.7866807,
            36.5913545
          ]
        ]
      }
    },
    {
      "type": "Feature",
      "properties": {
        "id": 61
      },
      "geometry": {
        "type": "LineString",
        "coordinates": [
          [
            136.7643281,
            36.5914614
          ],
          [
            136.7866798,
            36.5915348
          ]
        ]
      }
    },
    {
      "type": "Feature",
      "properties": {
        "id": 62
      },
      "geometry": {
        "type": "LineString",
        "coordinates": [
          [
            136.7643272,
            36.5916416
          ],
          [
            136.7866789,
            36.591715
          ]
        ]
      }
    },
    {
      "type": "Feature",
      "properties": {
        "id": 63
      },
      "geometry": {
        "type": "LineString",
        "coordinates": [
          [
            136.7643263,
            36.5918219
          ],
          [
            136.786678,
            36.5918952
          ]
        ]
      }
    },
    {
      "type": "Feature",
      "properties": {
        "id": 64
      },
      "geometry": {
        "type": "LineString",
        "coordinates": [
          [
            136.7643253,
            36.5920021
          ],
          [
            136.7866772,
            36.5920755
          ]
        ]
      }
    },
    {
      "type": "Feature",
      "properties": {
        "id": 65
      },
      "geometry": {
        "type": "LineString",
        "coordinates": [
          [
            136.7643244,
            36.5921824
          ],
          [
            136.7866763,
            36.5922557
          ]
        ]
      }
    },
    {
      "type": "Feature",
      "properties": {
        "id": 66
      },
      "geometry": {
        "type": "LineString",
        "coordinates": [
          [
            136.7643234,
            36.5923626
          ],
          [
            136.7866754,
            36.592436
          ]
        ]
      }
    },
    {
      "type": "Feature",
      "properties": {
        "id": 67
      },
      "geometry": {
        "type": "LineString",
        "coordinates": [
          [
            136.7643225,
            36.5925429
          ],
          [
            136.7866745,
            36.5926162
          ]
        ]
      }
    },
    {
      "type": "Feature",
      "properties": {
        "id": 68
      },
      "geometry": {
        "type": "LineString",
        "coordinates": [
          [
            136.7643216,
            36.5927231
          ],
          [
            136.7866736,
            36.5927965
          ]
        ]
      }
    },
    {
      "type": "Feature",
      "properties": {
        "id": 69
      },
      "geometry": {
        "type": "LineString",
        "coordinates": [
          [
            136.7643206,
            36.5929033
          ],
          [
            136.7866727,
            36.5929767
          ]
        ]
      }
    },
    {
      "type": "Feature",
      "properties": {
        "id": 70
      },
      "geometry": {
        "type": "LineString",
        "coordinates": [
          [
            136.7643197,
            36.5930836
          ],
          [
            136.7866719,
            36.5931569
          ]
        ]
      }
    },
    {
      "type": "Feature",
      "properties": {
        "id": 71
      },
      "geometry": {
        "type": "LineString",
        "coordinates": [
          [
            136.7643188,
            36.5932638
          ],
          [
            136.786671,
            36.5933372
          ]
        ]
      }
    },
    {
      "type": "Feature",
      "properties": {
        "id": 72
      },
      "geometry": {
        "type": "LineString",
        "coordinates": [
          [
            136.7643178,
            36.5934441
          ],
          [
            136.7866701,
            36.5935174
          ]
        ]
      }
    },
    {
      "type": "Feature",
      "properties": {
        "id": 73
      },
      "geometry": {
        "type": "LineString",
        "coordinates": [
          [
            136.7643169,
            36.5936243
          ],
          [
            136.7866692,
            36.5936977
          ]
        ]
      }
    },
    {
      "type": "Feature",
      "properties": {
        "id": 74
      },
      "geometry": {
        "type": "LineString",
        "coordinates": [
          [
            136.764316,
            36.5938046
          ],
          [
            136.7866683,
            36.5938779
          ]
        ]
      }
    },
    {
      "type": "Feature",
      "properties": {
        "id": 75
      },
      "geometry": {
        "type": "LineString",
        "coordinates": [
          [
            136.764315,
            36.5939848
          ],
          [
            136.7866674,
            36.5940582
          ]
        ]
      }
    },
    {
      "type": "Feature",
      "properties": {
        "id": 76
      },
      "geometry": {
        "type": "LineString",
        "coordinates": [
          [
            136.7643141,
            36.594165
          ],
          [
            136.7866666,
            36.5942384
          ]
        ]
      }
    },
    {
      "type": "Feature",
      "properties": {
        "id": 77
      },
      "geometry": {
        "type": "LineString",
        "coordinates": [
          [
            136.7643842,
            36.5806468
          ],
          [
            136.7643141,
            36.594165
          ]
        ]
      }
    },
    {
      "type": "Feature",
      "properties": {
        "id": 78
      },
      "geometry": {
        "type": "LineString",
        "coordinates": [
          [
            136.7646077,
            36.5806476
          ],
          [
            136.7645376,
            36.5941658
          ]
        ]
      }
    },
    {
      "type": "Feature",
      "properties": {
        "id": 79
      },
      "geometry": {
        "type": "LineString",
        "coordinates": [
          [
            136.7648312,
            36.5806484
          ],
          [
            136.7647611,
            36.5941665
          ]
        ]
      }
    },
    {
      "type": "Feature",
      "properties": {
        "id": 80
      },
      "geometry": {
        "type": "LineString",
        "coordinates": [
          [
            136.7650547,
            36.5806491
          ],
          [
            136.7649847,
            36.5941673
          ]
        ]
      }
    },
    {
      "type": "Feature",
      "properties": {
        "id": 81
      },
      "geometry": {
        "type": "LineString",
        "coordinates": [
          [
            136.7652782,
            36.5806499
          ],
          [
            136.7652082,
            36.5941681
          ]
        ]
      }
    },
    {
      "type": "Feature",
      "properties": {
        "id": 82
      },
      "geometry": {
        "type": "LineString",
        "coordinates": [
          [
            136.7655017,
            36.5806506
          ],
          [
            136.7654317,
            36.5941688
          ]
        ]
      }
    },
    {
      "type": "Feature",
      "properties": {
        "id": 83
      },
      "geometry": {
        "type": "LineString",
        "coordinates": [
          [
            136.7657252,
            36.5806514
          ],
          [
            136.7656552,
            36.5941696
          ]
        ]
      }
    },
    {
      "type": "Feature",
      "properties": {
        "id": 84
      },
      "geometry": {
        "type": "LineString",
        "coordinates": [
          [
            136.7659486,
            36.5806521
          ],
          [
            136.7658788,
            36.5941703
          ]
        ]
      }
    },
    {
      "type": "Feature",
      "properties": {
        "id": 85
      },
      "geometry": {
        "type": "LineString",
        "coordinates": [
          [
            136.7661721,
            36.5806529
          ],
          [
            136.7661023,
            36.5941711
          ]
        ]
      }
    },
    {
      "type": "Feature",
      "properties": {
        "id": 86
      },
      "geometry": {
        "type": "LineString",
        "coordinates": [
          [
            136.7663956,
            36.5806536
          ],
          [
            136.7663258,
            36.5941718
          ]
        ]
      }
    },
    {
      "type": "Feature",
      "properties": {
        "id": 87
      },
      "geometry": {
        "type": "LineString",
        "coordinates": [
          [
            136.7666191,
            36.5806544
          ],
          [
            136.7665493,
            36.5941726
          ]
        ]
      }
    },
    {
      "type": "Feature",
      "properties": {
        "id": 88
      },
      "geometry": {
        "type": "LineString",
        "coordinates": [
          [
            136.7668426,
            36.5806551
          ],
          [
            136.7667729,
            36.5941733
          ]
        ]
      }
    },
    {
      "type": "Feature",
      "properties": {
        "id": 89
      },
      "geometry": {
        "type": "LineString",
        "coordinates": [
          [
            136.7670661,
            36.5806559
          ],
          [
            136.7669964,
            36.5941741
          ]
        ]
      }
    },
    {
      "type": "Feature",
      "properties": {
        "id": 90
      },
      "geometry": {
        "type": "LineString",
        "coordinates": [
          [
            136.7672896,
            36.5806566
          ],
          [
            136.7672199,
            36.5941748
          ]
        ]
      }
    },
    {
      "type": "Feature",
      "properties": {
        "id": 91
      },
      "geometry": {
        "type": "LineString",
        "coordinates": [
          [
            136.767513,
            36.5806574
          ],
          [
            136.7674434,
            36.5941756
          ]
        ]
      }
    },
    {
      "type": "Feature",
      "properties": {
        "id": 92
      },
      "geometry": {
        "type": "LineString",
        "coordinates": [
          [
            136.7677365,
            36.5806581
          ],
          [
            136.767667,
            36.5941763
          ]
        ]
      }
    },
    {
      "type": "Feature",
      "properties": {
        "id": 93
      },
      "geometry": {
        "type": "LineString",
        "coordinates": [
          [
            136.76796,
            36.5806589
          ],
          [
            136.7678905,
            36.5941771
          ]
        ]
      }
    },
    {
      "type": "Feature",
      "properties": {
        "id": 94
      },
      "geometry": {
        "type": "LineString",
        "coordinates": [
          [
            136.7681835,
            36.5806596
          ],
          [
            136.768114,
            36.5941778
          ]
        ]
      }
    },
    {
      "type": "Feature",
      "properties": {
        "id": 95
      },
      "geometry": {
        "type": "LineString",
        "coordinates": [
          [
            136.768407,
            36.5806604
          ],
          [
            136.7683375,
            36.5941786
          ]
        ]
      }
    },
    {
      "type": "Feature",
      "properties": {
        "id": 96
      },
      "geometry": {
        "type": "LineString",
        "coordinates": [
          [
            136.7686305,
            36.5806611
          ],
          [
            136.768561,
            36.5941793
          ]
        ]
      }
    },
    {
      "type": "Feature",
      "properties": {
        "id": 97
      },
      "geometry": {
        "type": "LineString",
        "coordinates": [
          [
            136.768854,
            36.5806618
          ],
          [
            136.7687846,
            36.59418
          ]
        ]
      }
    },
    {
      "type": "Feature",
      "properties": {
        "id": 98
      },
      "geometry": {
        "type": "LineString",
        "coordinates": [
          [
            136.7690774,
            36.5806626
          ],
          [
            136.7690081,
            36.5941808
          ]
        ]
      }
    },
    {
      "type": "Feature",
      "properties": {
        "id": 99
      },
      "geometry": {
        "type": "LineString",
        "coordinates": [
          [
            136.7693009,
            36.5806633
          ],
          [
            136.7692316,
            36.5941815
          ]
        ]
      }
    },
    {
      "type": "Feature",
      "properties": {
        "id": 100
      },
      "geometry": {
        "type": "LineString",
        "coordinates": [
          [
            136.7695244,
            36.5806641
          ],
          [
            136.7694551,
            36.5941823
          ]
        ]
      }
    },
    {
      "type": "Feature",
      "properties": {
        "id": 101
      },
      "geometry": {
        "type": "LineString",
        "coordinates": [
          [
            136.7697479,
            36.5806648
          ],
          [
            136.7696787,
            36.594183
          ]
        ]
      }
    },
    {
      "type": "Feature",
      "properties": {
        "id": 102
      },
      "geometry": {
        "type": "LineString",
        "coordinates": [
          [
            136.7699714,
            36.5806656
          ],
          [
            136.7699022,
            36.5941838
          ]
        ]
      }
    },
    {
      "type": "Feature",
      "properties": {
        "id": 103
      },
      "geometry": {
        "type": "LineString",
        "coordinates": [
          [
            136.7701949,
            36.5806663
          ],
          [
            136.7701257,
            36.5941845
          ]
        ]
      }
    },
    {
      "type": "Feature",
      "properties": {
        "id": 104
      },
      "geometry": {
        "type": "LineString",
        "coordinates": [
          [
            136.7704184,
            36.5806671
          ],
          [
            136.7703492,
            36.5941853
          ]
        ]
      }
    },
    {
      "type": "Feature",
      "properties": {
        "id": 105
      },
      "geometry": {
        "type": "LineString",
        "coordinates": [
          [
            136.7706418,
            36.5806678
          ],
          [
            136.7705728,
            36.594186
          ]
        ]
      }
    },
    {
      "type": "Feature",
      "properties": {
        "id": 106
      },
      "geometry": {
        "type": "LineString",
        "coordinates": [
          [
            136.7708653,
            36.5806685
          ],
          [
            136.7707963,
            36.5941867
          ]
        ]
      }
    },
    {
      "type": "Feature",
      "properties": {
        "id": 107
      },
      "geometry": {
        "type": "LineString",
        "coordinates": [
          [
            136.7710888,
            36.5806693
          ],
          [
            136.7710198,
            36.5941875
          ]
        ]
      }
    },
    {
      "type": "Feature",
      "properties": {
        "id": 108
      },
      "geometry": {
        "type": "LineString",
        "coordinates": [
          [
            136.7713123,
            36.58067
          ],
          [
            136.7712433,
            36.5941882
          ]
        ]
      }
    },
    {
      "type": "Feature",
      "properties": {
        "id": 109
      },
      "geometry": {
        "type": "LineString",
        "coordinates": [
          [
            136.7715358,
            36.5806708
          ],
          [
            136.7714669,
            36.594189
          ]
        ]
      }
    },
    {
      "type": "Feature",
      "properties": {
        "id": 110
      },
      "geometry": {
        "type": "LineString",
        "coordinates": [
          [
            136.7717593,
            36.5806715
          ],
          [
            136.7716904,
            36.5941897
          ]
        ]
      }
    },
    {
      "type": "Feature",
      "properties": {
        "id": 111
      },
      "geometry": {
        "type": "LineString",
        "coordinates": [
          [
            136.7719827,
            36.5806722
          ],
          [
            136.7719139,
            36.5941904
          ]
        ]
      }
    },
    {
      "type": "Feature",
      "properties": {
        "id": 112
      },
      "geometry": {
        "type": "LineString",
        "coordinates": [
          [
            136.7722062,
            36.580673
          ],
          [
            136.7721374,
            36.5941912
          ]
        ]
      }
    },
    {
      "type": "Feature",
      "properties": {
        "id": 113
      },
      "geometry": {
        "type": "LineString",
        "coordinates": [
          [
            136.7724297,
            36.5806737
          ],
          [
            136.772361,
            36.5941919
          ]
        ]
      }
    },
    {
      "type": "Feature",
      "properties": {
        "id": 114
      },
      "geometry": {
        "type": "LineString",
        "coordinates": [
          [
            136.7726532,
            36.5806745
          ],
          [
            136.7725845,
            36.5941927
          ]
        ]
      }
    },
    {
      "type": "Feature",
      "properties": {
        "id": 115
      },
      "geometry": {
        "type": "LineString",
        "coordinates": [
          [
            136.7728767,
            36.5806752
          ],
          [
            136.772808,
            36.5941934
          ]
        ]
      }
    },
    {
      "type": "Feature",
      "properties": {
        "id": 116
      },
      "geometry": {
        "type": "LineString",
        "coordinates": [
          [
            136.7731002,
            36.5806759
          ],
          [
            136.7730315,
            36.5941941
          ]
        ]
      }
    },
    {
      "type": "Feature",
      "properties": {
        "id": 117
      },
      "geometry": {
        "type": "LineString",
        "coordinates": [
          [
            136.7733237,
            36.5806767
          ],
          [
            136.7732551,
            36.5941949
          ]
        ]
      }
    },
    {
      "type": "Feature",
      "properties": {
        "id": 118
      },
      "geometry": {
        "type": "LineString",
        "coordinates": [
          [
            136.7735471,
            36.5806774
          ],
          [
            136.7734786,
            36.5941956
          ]
        ]
      }
    },
    {
      "type": "Feature",
      "properties": {
        "id": 119
      },
      "geometry": {
        "type": "LineString",
        "coordinates": [
          [
            136.7737706,
            36.5806781
          ],
          [
            136.7737021,
            36.5941964
          ]
        ]
      }
    },
    {
      "type": "Feature",
      "properties": {
        "id": 120
      },
      "geometry": {
        "type": "LineString",
        "coordinates": [
          [
            136.7739941,
            36.5806789
          ],
          [
            136.7739256,
            36.5941971
          ]
        ]
      }
    },
    {
      "type": "Feature",
      "properties": {
        "id": 121
      },
      "geometry": {
        "type": "LineString",
        "coordinates": [
          [
            136.7742176,
            36.5806796
          ],
          [
            136.7741492,
            36.5941978
          ]
        ]
      }
    },
    {
      "type": "Feature",
      "properties": {
        "id": 122
      },
      "geometry": {
        "type": "LineString",
        "coordinates": [
          [
            136.7744411,
            36.5806804
          ],
          [
            136.7743727,
            36.5941986
          ]
        ]
      }
    },
    {
      "type": "Feature",
      "properties": {
        "id": 123
      },
      "geometry": {
        "type": "LineString",
        "coordinates": [
          [
            136.7746646,
            36.5806811
          ],
          [
            136.7745962,
            36.5941993
          ]
        ]
      }
    },
    {
      "type": "Feature",
      "properties": {
        "id": 124
      },
      "geometry": {
        "type": "LineString",
        "coordinates": [
          [
            136.7748881,
            36.5806818
          ],
          [
            136.7748197,
            36.5942
          ]
        ]
      }
    },
    {
      "type": "Feature",
      "properties": {
        "id": 125
      },
      "geometry": {
        "type": "LineString",
        "coordinates": [
          [
            136.7751115,
            36.5806826
          ],
          [
            136.7750433,
            36.5942008
          ]
        ]
      }
    },
    {
      "type": "Feature",
      "properties": {
        "id": 126
      },
      "geometry": {
        "type": "LineString",
        "coordinates": [
          [
            136.775335,
            36.5806833
          ],
          [
            136.7752668,
            36.5942015
          ]
        ]
      }
    },
    {
      "type": "Feature",
      "properties": {
        "id": 127
      },
      "geometry": {
        "type": "LineString",
        "coordinates": [
          [
            136.7755585,
            36.580684
          ],
          [
            136.7754903,
            36.5942022
          ]
        ]
      }
    },
    {
      "type": "Feature",
      "properties": {
        "id": 128
      },
      "geometry": {
        "type": "LineString",
        "coordinates": [
          [
            136.775782,
            36.5806848
          ],
          [
            136.7757138,
            36.594203
          ]
        ]
      }
    },
    {
      "type": "Feature",
      "properties": {
        "id": 129
      },
      "geometry": {
        "type": "LineString",
        "coordinates": [
          [
            136.7760055,
            36.5806855
          ],
          [
            136.7759374,
            36.5942037
          ]
        ]
      }
    },
    {
      "type": "Feature",
      "properties": {
        "id": 130
      },
      "geometry": {
        "type": "LineString",
        "coordinates": [
          [
            136.776229,
            36.5806862
          ],
          [
            136.7761609,
            36.5942044
          ]
        ]
      }
    },
    {
      "type": "Feature",
      "properties": {
        "id": 131
      },
      "geometry": {
        "type": "LineString",
        "coordinates": [
          [
            136.7764525,
            36.580687
          ],
          [
            136.7763844,
            36.5942052
          ]
        ]
      }
    },
    {
      "type": "Feature",
      "properties": {
        "id": 132
      },
      "geometry": {
        "type": "LineString",
        "coordinates": [
          [
            136.7766759,
            36.5806877
          ],
          [
            136.7766079,
            36.5942059
          ]
        ]
      }
    },
    {
      "type": "Feature",
      "properties": {
        "id": 133
      },
      "geometry": {
        "type": "LineString",
        "coordinates": [
          [
            136.7768994,
            36.5806884
          ],
          [
            136.7768315,
            36.5942066
          ]
        ]
      }
    },
    {
      "type": "Feature",
      "properties": {
        "id": 134
      },
      "geometry": {
        "type": "LineString",
        "coordinates": [
          [
            136.7771229,
            36.5806892
          ],
          [
            136.777055,
            36.5942074
          ]
        ]
      }
    },
    {
      "type": "Feature",
      "properties": {
        "id": 135
      },
      "geometry": {
        "type": "LineString",
        "coordinates": [
          [
            136.7773464,
            36.5806899
          ],
          [
            136.7772785,
            36.5942081
          ]
        ]
      }
    },
    {
      "type": "Feature",
      "properties": {
        "id": 136
      },
      "geometry": {
        "type": "LineString",
        "coordinates": [
          [
            136.7775699,
            36.5806906
          ],
          [
            136.777502,
            36.5942088
          ]
        ]
      }
    },
    {
      "type": "Feature",
      "properties": {
        "id": 137
      },
      "geometry": {
        "type": "LineString",
        "coordinates": [
          [
            136.7777934,
            36.5806913
          ],
          [
            136.7777256,
            36.5942096
          ]
        ]
      }
    },
    {
      "type": "Feature",
      "properties": {
        "id": 138
      },
      "geometry": {
        "type": "LineString",
        "coordinates": [
          [
            136.7780169,
            36.5806921
          ],
          [
            136.7779491,
            36.5942103
          ]
        ]
      }
    },
    {
      "type": "Feature",
      "properties": {
        "id": 139
      },
      "geometry": {
        "type": "LineString",
        "coordinates": [
          [
            136.7782403,
            36.5806928
          ],
          [
            136.7781726,
            36.594211
          ]
        ]
      }
    },
    {
      "type": "Feature",
      "properties": {
        "id": 140
      },
      "geometry": {
        "type": "LineString",
        "coordinates": [
          [
            136.7784638,
            36.5806935
          ],
          [
            136.7783961,
            36.5942117
          ]
        ]
      }
    },
    {
      "type": "Feature",
      "properties": {
        "id": 141
      },
      "geometry": {
        "type": "LineString",
        "coordinates": [
          [
            136.7786873,
            36.5806943
          ],
          [
            136.7786197,
            36.5942125
          ]
        ]
      }
    },
    {
      "type": "Feature",
      "properties": {
        "id": 142
      },
      "geometry": {
        "type": "LineString",
        "coordinates": [
          [
            136.7789108,
            36.580695
          ],
          [
            136.7788432,
            36.5942132
          ]
        ]
      }
    },
    {
      "type": "Feature",
      "properties": {
        "id": 143
      },
      "geometry": {
        "type": "LineString",
        "coordinates": [
          [
            136.7791343,
            36.5806957
          ],
          [
            136.7790667,
            36.5942139
          ]
        ]
      }
    },
    {
      "type": "Feature",
      "properties": {
        "id": 144
      },
      "geometry": {
        "type": "LineString",
        "coordinates": [
          [
            136.7793578,
            36.5806964
          ],
          [
            136.7792902,
            36.5942147
          ]
        ]
      }
    },
    {
      "type": "Feature",
      "properties": {
        "id": 145
      },
      "geometry": {
        "type": "LineString",
        "coordinates": [
          [
            136.7795813,
            36.5806972
          ],
          [
            136.7795138,
            36.5942154
          ]
        ]
      }
    },
    {
      "type": "Feature",
      "properties": {
        "id": 146
      },
      "geometry": {
        "type": "LineString",
        "coordinates": [
          [
            136.7798047,
            36.5806979
          ],
          [
            136.7797373,
            36.5942161
          ]
        ]
      }
    },
    {
      "type": "Feature",
      "properties": {
        "id": 147
      },
      "geometry": {
        "type": "LineString",
        "coordinates": [
          [
            136.7800282,
            36.5806986
          ],
          [
            136.7799608,
            36.5942168
          ]
        ]
      }
    },
    {
      "type": "Feature",
      "properties": {
        "id": 148
      },
      "geometry": {
        "type": "LineString",
        "coordinates": [
          [
            136.7802517,
            36.5806993
          ],
          [
            136.7801843,
            36.5942176
          ]
        ]
      }
    },
    {
      "type": "Feature",
      "properties": {
        "id": 149
      },
      "geometry": {
        "type": "LineString",
        "coordinates": [
          [
            136.7804752,
            36.5807001
          ],
          [
            136.7804079,
            36.5942183
          ]
        ]
      }
    },
    {
      "type": "Feature",
      "properties": {
        "id": 150
      },
      "geometry": {
        "type": "LineString",
        "coordinates": [
          [
            136.7806987,
            36.5807008
          ],
          [
            136.7806314,
            36.594219
          ]
        ]
      }
    },
    {
      "type": "Feature",
      "properties": {
        "id": 151
      },
      "geometry": {
        "type": "LineString",
        "coordinates": [
          [
            136.7809222,
            36.5807015
          ],
          [
            136.7808549,
            36.5942197
          ]
        ]
      }
    },
    {
      "type": "Feature",
      "properties": {
        "id": 152
      },
      "geometry": {
        "type": "LineString",
        "coordinates": [
          [
            136.7811457,
            36.5807022
          ],
          [
            136.7810784,
            36.5942204
          ]
        ]
      }
    },
    {
      "type": "Feature",
      "properties": {
        "id": 153
      },
      "geometry": {
        "type": "LineString",
        "coordinates": [
          [
            136.7813691,
            36.580703
          ],
          [
            136.781302,
            36.5942212
          ]
        ]
      }
    },
    {
      "type": "Feature",
      "properties": {
        "id": 154
      },
      "geometry": {
        "type": "LineString",
        "coordinates": [
          [
            136.7815926,
            36.5807037
          ],
          [
            136.7815255,
            36.5942219
          ]
        ]
      }
    },
    {
      "type": "Feature",
      "properties": {
        "id": 155
      },
      "geometry": {
        "type": "LineString",
        "coordinates": [
          [
            136.7818161,
            36.5807044
          ],
          [
            136.781749,
            36.5942226
          ]
        ]
      }
    },
    {
      "type": "Feature",
      "properties": {
        "id": 156
      },
      "geometry": {
        "type": "LineString",
        "coordinates": [
          [
            136.7820396,
            36.5807051
          ],
          [
            136.7819725,
            36.5942233
          ]
        ]
      }
    },
    {
      "type": "Feature",
      "properties": {
        "id": 157
      },
      "geometry": {
        "type": "LineString",
        "coordinates": [
          [
            136.7822631,
            36.5807058
          ],
          [
            136.7821961,
            36.5942241
          ]
        ]
      }
    },
    {
      "type": "Feature",
      "properties": {
        "id": 158
      },
      "geometry": {
        "type": "LineString",
        "coordinates": [
          [
            136.7824866,
            36.5807066
          ],
          [
            136.7824196,
            36.5942248
          ]
        ]
      }
    },
    {
      "type": "Feature",
      "properties": {
        "id": 159
      },
      "geometry": {
        "type": "LineString",
        "coordinates": [
          [
            136.7827101,
            36.5807073
          ],
          [
            136.7826431,
            36.5942255
          ]
        ]
      }
    },
    {
      "type": "Feature",
      "properties": {
        "id": 160
      },
      "geometry": {
        "type": "LineString",
        "coordinates": [
          [
            136.7829336,
            36.580708
          ],
          [
            136.7828666,
            36.5942262
          ]
        ]
      }
    },
    {
      "type": "Feature",
      "properties": {
        "id": 161
      },
      "geometry": {
        "type": "LineString",
        "coordinates": [
          [
            136.783157,
            36.5807087
          ],
          [
            136.7830902,
            36.5942269
          ]
        ]
      }
    },
    {
      "type": "Feature",
      "properties": {
        "id": 162
      },
      "geometry": {
        "type": "LineString",
        "coordinates": [
          [
            136.7833805,
            36.5807094
          ],
          [
            136.7833137,
            36.5942277
          ]
        ]
      }
    },
    {
      "type": "Feature",
      "properties": {
        "id": 163
      },
      "geometry": {
        "type": "LineString",
        "coordinates": [
          [
            136.783604,
            36.5807102
          ],
          [
            136.7835372,
            36.5942284
          ]
        ]
      }
    },
    {
      "type": "Feature",
      "properties": {
        "id": 164
      },
      "geometry": {
        "type": "LineString",
        "coordinates": [
          [
            136.7838275,
            36.5807109
          ],
          [
            136.7837607,
            36.5942291
          ]
        ]
      }
    },
    {
      "type": "Feature",
      "properties": {
        "id": 165
      },
      "geometry": {
        "type": "LineString",
        "coordinates": [
          [
            136.784051,
            36.5807116
          ],
          [
            136.7839843,
            36.5942298
          ]
        ]
      }
    },
    {
      "type": "Feature",
      "properties": {
        "id": 166
      },
      "geometry": {
        "type": "LineString",
        "coordinates": [
          [
            136.7842745,
            36.5807123
          ],
          [
            136.7842078,
            36.5942305
          ]
        ]
      }
    },
    {
      "type": "Feature",
      "properties": {
        "id": 167
      },
      "geometry": {
        "type": "LineString",
        "coordinates": [
          [
            136.784498,
            36.580713
          ],
          [
            136.7844313,
            36.5942312
          ]
        ]
      }
    },
    {
      "type": "Feature",
      "properties": {
        "id": 168
      },
      "geometry": {
        "type": "LineString",
        "coordinates": [
          [
            136.7847214,
            36.5807137
          ],
          [
            136.7846548,
            36.594232
          ]
        ]
      }
    },
    {
      "type": "Feature",
      "properties": {
        "id": 169
      },
      "geometry": {
        "type": "LineString",
        "coordinates": [
          [
            136.7849449,
            36.5807145
          ],
          [
            136.7848784,
            36.5942327
          ]
        ]
      }
    },
    {
      "type": "Feature",
      "properties": {
        "id": 170
      },
      "geometry": {
        "type": "LineString",
        "coordinates": [
          [
            136.7851684,
            36.5807152
          ],
          [
            136.7851019,
            36.5942334
          ]
        ]
      }
    },
    {
      "type": "Feature",
      "properties": {
        "id": 171
      },
      "geometry": {
        "type": "LineString",
        "coordinates": [
          [
            136.7853919,
            36.5807159
          ],
          [
            136.7853254,
            36.5942341
          ]
        ]
      }
    },
    {
      "type": "Feature",
      "properties": {
        "id": 172
      },
      "geometry": {
        "type": "LineString",
        "coordinates": [
          [
            136.7856154,
            36.5807166
          ],
          [
            136.7855489,
            36.5942348
          ]
        ]
      }
    },
    {
      "type": "Feature",
      "properties": {
        "id": 173
      },
      "geometry": {
        "type": "LineString",
        "coordinates": [
          [
            136.7858389,
            36.5807173
          ],
          [
            136.7857725,
            36.5942355
          ]
        ]
      }
    },
    {
      "type": "Feature",
      "properties": {
        "id": 174
      },
      "geometry": {
        "type": "LineString",
        "coordinates": [
          [
            136.7860624,
            36.580718
          ],
          [
            136.785996,
            36.5942363
          ]
        ]
      }
    },
    {
      "type": "Feature",
      "properties": {
        "id": 175
      },
      "geometry": {
        "type": "LineString",
        "coordinates": [
          [
            136.7862858,
            36.5807187
          ],
          [
            136.7862195,
            36.594237
          ]
        ]
      }
    },
    {
      "type": "Feature",
      "properties": {
        "id": 176
      },
      "geometry": {
        "type": "LineString",
        "coordinates": [
          [
            136.7865093,
            36.5807195
          ],
          [
            136.786443,
            36.5942377
          ]
        ]
      }
    },
    {
      "type": "Feature",
      "properties": {
        "id": 177
      },
      "geometry": {
        "type": "LineString",
        "coordinates": [
          [
            136.7867328,
            36.5807202
          ],
          [
            136.7866666,
            36.5942384
          ]
        ]
      }
    }
  ]
}